ONEWEB-0228             
1 48780U 21045P   23284.53131221  .00000137  00000+0  32955-3 0  9993
2 48780  87.8932  94.2332 0001755  84.5966 275.5365 13.15547346115521
